CCSDS_OMM_VERS = 2.0
CREATION_DATE  = 
ORIGINATOR     = 

OBJECT_NAME    = STARLINK-35588
OBJECT_ID      = 2025-259C
CENTER_NAME    = EARTH
REF_FRAME      = TEME
TIME_SYSTEM    = UTC
MEAN_ELEMENT_THEORY = SGP/SGP4

EPOCH          = 2025-12-04T18:00:02.000160
MEAN_MOTION    = 15.44616308
ECCENTRICITY   = .0001234
INCLINATION    = 43.0010
RA_OF_ASC_NODE = 94.1021
ARG_OF_PERICENTER = 280.0470
MEAN_ANOMALY   = 314.6854

EPHEMERIS_TYPE = 0
CLASSIFICATION_TYPE = U
NORAD_CAT_ID   = 66424
ELEMENT_SET_NO = 999
REV_AT_EPOCH   = 499
BSTAR          = -.4729E-1
MEAN_MOTION_DOT = -.2008349E-1
MEAN_MOTION_DDOT = 0

CCSDS_OMM_VERS = 2.0
CREATION_DATE  = 
ORIGINATOR     = 

OBJECT_NAME    = STARLINK-35555
OBJECT_ID      = 2025-259D
CENTER_NAME    = EARTH
REF_FRAME      = TEME
TIME_SYSTEM    = UTC
MEAN_ELEMENT_THEORY = SGP/SGP4

EPOCH          = 2025-12-04T18:00:02.000160
MEAN_MOTION    = 15.45944837
ECCENTRICITY   = .0001171
INCLINATION    = 43.0011
RA_OF_ASC_NODE = 94.0815
ARG_OF_PERICENTER = 281.5697
MEAN_ANOMALY   = 320.6937

EPHEMERIS_TYPE = 0
CLASSIFICATION_TYPE = U
NORAD_CAT_ID   = 66425
ELEMENT_SET_NO = 999
REV_AT_EPOCH   = 499
BSTAR          = -.44921E-1
MEAN_MOTION_DOT = -.1998588E-1
MEAN_MOTION_DDOT = 0

CCSDS_OMM_VERS = 2.0
CREATION_DATE  = 
ORIGINATOR     = 

OBJECT_NAME    = STARLINK-35589
OBJECT_ID      = 2025-259E
CENTER_NAME    = EARTH
REF_FRAME      = TEME
TIME_SYSTEM    = UTC
MEAN_ELEMENT_THEORY = SGP/SGP4

EPOCH          = 2025-12-04T18:00:02.000160
MEAN_MOTION    = 15.47293608
ECCENTRICITY   = .0001333
INCLINATION    = 43.0006
RA_OF_ASC_NODE = 94.0675
ARG_OF_PERICENTER = 276.7191
MEAN_ANOMALY   = 331.6551

EPHEMERIS_TYPE = 0
CLASSIFICATION_TYPE = U
NORAD_CAT_ID   = 66426
ELEMENT_SET_NO = 999
REV_AT_EPOCH   = 499
BSTAR          = -.43812E-1
MEAN_MOTION_DOT = -.2038479E-1
MEAN_MOTION_DDOT = 0

CCSDS_OMM_VERS = 2.0
CREATION_DATE  = 
ORIGINATOR     = 

OBJECT_NAME    = STARLINK-35611
OBJECT_ID      = 2025-259F
CENTER_NAME    = EARTH
REF_FRAME      = TEME
TIME_SYSTEM    = UTC
MEAN_ELEMENT_THEORY = SGP/SGP4

EPOCH          = 2025-12-04T18:00:02.000160
MEAN_MOTION    = 15.48617955
ECCENTRICITY   = .0001353
INCLINATION    = 43.0006
RA_OF_ASC_NODE = 94.0552
ARG_OF_PERICENTER = 270.5947
MEAN_ANOMALY   = 342.4783

EPHEMERIS_TYPE = 0
CLASSIFICATION_TYPE = U
NORAD_CAT_ID   = 66427
ELEMENT_SET_NO = 999
REV_AT_EPOCH   = 499
BSTAR          = -.41624E-1
MEAN_MOTION_DOT = -.2030273E-1
MEAN_MOTION_DDOT = 0

CCSDS_OMM_VERS = 2.0
CREATION_DATE  = 
ORIGINATOR     = 

OBJECT_NAME    = STARLINK-35610
OBJECT_ID      = 2025-259G
CENTER_NAME    = EARTH
REF_FRAME      = TEME
TIME_SYSTEM    = UTC
MEAN_ELEMENT_THEORY = SGP/SGP4

EPOCH          = 2025-12-04T18:00:02.000160
MEAN_MOTION    = 15.49923231
ECCENTRICITY   = .0001476
INCLINATION    = 43.0007
RA_OF_ASC_NODE = 94.0472
ARG_OF_PERICENTER = 276.0320
MEAN_ANOMALY   = 340.3269

EPHEMERIS_TYPE = 0
CLASSIFICATION_TYPE = U
NORAD_CAT_ID   = 66428
ELEMENT_SET_NO = 999
REV_AT_EPOCH   = 499
BSTAR          = -.39047E-1
MEAN_MOTION_DOT = -.1998952E-1
MEAN_MOTION_DDOT = 0

CCSDS_OMM_VERS = 2.0
CREATION_DATE  = 
ORIGINATOR     = 

OBJECT_NAME    = STARLINK-35533
OBJECT_ID      = 2025-259H
CENTER_NAME    = EARTH
REF_FRAME      = TEME
TIME_SYSTEM    = UTC
MEAN_ELEMENT_THEORY = SGP/SGP4

EPOCH          = 2025-12-04T18:00:02.000160
MEAN_MOTION    = 15.50942306
ECCENTRICITY   = .00013
INCLINATION    = 43.0006
RA_OF_ASC_NODE = 94.0409
ARG_OF_PERICENTER = 266.9909
MEAN_ANOMALY   = 351.3849

EPHEMERIS_TYPE = 0
CLASSIFICATION_TYPE = U
NORAD_CAT_ID   = 66429
ELEMENT_SET_NO = 999
REV_AT_EPOCH   = 499
BSTAR          = -.29248E-1
MEAN_MOTION_DOT = -.1567241E-1
MEAN_MOTION_DDOT = 0

CCSDS_OMM_VERS = 2.0
CREATION_DATE  = 
ORIGINATOR     = 

OBJECT_NAME    = STARLINK-35470
OBJECT_ID      = 2025-259J
CENTER_NAME    = EARTH
REF_FRAME      = TEME
TIME_SYSTEM    = UTC
MEAN_ELEMENT_THEORY = SGP/SGP4

EPOCH          = 2025-12-04T18:00:02.000160
MEAN_MOTION    = 15.50533908
ECCENTRICITY   = .0001577
INCLINATION    = 43.0006
RA_OF_ASC_NODE = 94.0378
ARG_OF_PERICENTER = 259.9152
MEAN_ANOMALY   = 0.4249

EPHEMERIS_TYPE = 0
CLASSIFICATION_TYPE = U
NORAD_CAT_ID   = 66430
ELEMENT_SET_NO = 999
REV_AT_EPOCH   = 499
BSTAR          = .80523E-3
MEAN_MOTION_DOT = .47106E-3
MEAN_MOTION_DDOT = 0

CCSDS_OMM_VERS = 2.0
CREATION_DATE  = 
ORIGINATOR     = 

OBJECT_NAME    = STARLINK-35439
OBJECT_ID      = 2025-259K
CENTER_NAME    = EARTH
REF_FRAME      = TEME
TIME_SYSTEM    = UTC
MEAN_ELEMENT_THEORY = SGP/SGP4

EPOCH          = 2025-12-04T18:00:02.000160
MEAN_MOTION    = 15.50516902
ECCENTRICITY   = .0001606
INCLINATION    = 43.0005
RA_OF_ASC_NODE = 94.0315
ARG_OF_PERICENTER = 276.7874
MEAN_ANOMALY   = 345.4865

EPHEMERIS_TYPE = 0
CLASSIFICATION_TYPE = U
NORAD_CAT_ID   = 66431
ELEMENT_SET_NO = 999
REV_AT_EPOCH   = 499
BSTAR          = .11113E-2
MEAN_MOTION_DOT = .65253E-3
MEAN_MOTION_DDOT = 0

CCSDS_OMM_VERS = 2.0
CREATION_DATE  = 
ORIGINATOR     = 

OBJECT_NAME    = STARLINK-35446
OBJECT_ID      = 2025-259L
CENTER_NAME    = EARTH
REF_FRAME      = TEME
TIME_SYSTEM    = UTC
MEAN_ELEMENT_THEORY = SGP/SGP4

EPOCH          = 2025-12-04T18:00:02.000160
MEAN_MOTION    = 15.50574443
ECCENTRICITY   = .0001369
INCLINATION    = 43.0007
RA_OF_ASC_NODE = 94.0262
ARG_OF_PERICENTER = 276.2152
MEAN_ANOMALY   = 347.9385

EPHEMERIS_TYPE = 0
CLASSIFICATION_TYPE = U
NORAD_CAT_ID   = 66432
ELEMENT_SET_NO = 999
REV_AT_EPOCH   = 499
BSTAR          = -.30072E-3
MEAN_MOTION_DOT = -.1794E-3
MEAN_MOTION_DDOT = 0

CCSDS_OMM_VERS = 2.0
CREATION_DATE  = 
ORIGINATOR     = 

OBJECT_NAME    = STARLINK-35457
OBJECT_ID      = 2025-259M
CENTER_NAME    = EARTH
REF_FRAME      = TEME
TIME_SYSTEM    = UTC
MEAN_ELEMENT_THEORY = SGP/SGP4

EPOCH          = 2025-12-04T18:00:02.000160
MEAN_MOTION    = 15.50559315
ECCENTRICITY   = .0001528
INCLINATION    = 43.0007
RA_OF_ASC_NODE = 94.0224
ARG_OF_PERICENTER = 260.7799
MEAN_ANOMALY   = 5.3055

EPHEMERIS_TYPE = 0
CLASSIFICATION_TYPE = U
NORAD_CAT_ID   = 66433
ELEMENT_SET_NO = 999
REV_AT_EPOCH   = 499
BSTAR          = -.35976E-4
MEAN_MOTION_DOT = -.245E-4
MEAN_MOTION_DDOT = 0

CCSDS_OMM_VERS = 2.0
CREATION_DATE  = 
ORIGINATOR     = 

OBJECT_NAME    = STARLINK-35389
OBJECT_ID      = 2025-259N
CENTER_NAME    = EARTH
REF_FRAME      = TEME
TIME_SYSTEM    = UTC
MEAN_ELEMENT_THEORY = SGP/SGP4

EPOCH          = 2025-12-04T18:00:02.000160
MEAN_MOTION    = 15.50572291
ECCENTRICITY   = .0001463
INCLINATION    = 43.0006
RA_OF_ASC_NODE = 94.0186
ARG_OF_PERICENTER = 264.0478
MEAN_ANOMALY   = 3.9513

EPHEMERIS_TYPE = 0
CLASSIFICATION_TYPE = U
NORAD_CAT_ID   = 66434
ELEMENT_SET_NO = 999
REV_AT_EPOCH   = 499
BSTAR          = -.4301E-3
MEAN_MOTION_DOT = -.25485E-3
MEAN_MOTION_DDOT = 0

CCSDS_OMM_VERS = 2.0
CREATION_DATE  = 
ORIGINATOR     = 

OBJECT_NAME    = STARLINK-35502
OBJECT_ID      = 2025-259P
CENTER_NAME    = EARTH
REF_FRAME      = TEME
TIME_SYSTEM    = UTC
MEAN_ELEMENT_THEORY = SGP/SGP4

EPOCH          = 2025-12-04T18:00:02.000160
MEAN_MOTION    = 15.50544043
ECCENTRICITY   = .0001528
INCLINATION    = 43.0007
RA_OF_ASC_NODE = 94.0137
ARG_OF_PERICENTER = 271.8296
MEAN_ANOMALY   = 358.0958

EPHEMERIS_TYPE = 0
CLASSIFICATION_TYPE = U
NORAD_CAT_ID   = 66435
ELEMENT_SET_NO = 999
REV_AT_EPOCH   = 499
BSTAR          = .34496E-3
MEAN_MOTION_DOT = .19922E-3
MEAN_MOTION_DDOT = 0

