STARLINK-35588          
1 66424U 25259C   25338.75002315 -.02008349  00000+0 -47290-1 0  9999
2 66424  43.0010  94.1021 0001234 280.0470 314.6854 15.44616308  4991
STARLINK-35555          
1 66425U 25259D   25338.75002315 -.01998588  00000+0 -44921-1 0  9990
2 66425  43.0011  94.0815 0001171 281.5697 320.6937 15.45944837  4991
STARLINK-35589          
1 66426U 25259E   25338.75002315 -.02038479  00000+0 -43812-1 0  9994
2 66426  43.0006  94.0675 0001333 276.7191 331.6551 15.47293608  4994
STARLINK-35611          
1 66427U 25259F   25338.75002315 -.02030273  00000+0 -41624-1 0  9998
2 66427  43.0006  94.0552 0001353 270.5947 342.4783 15.48617955  4995
STARLINK-35610          
1 66428U 25259G   25338.75002315 -.01998952  00000+0 -39047-1 0  9991
2 66428  43.0007  94.0472 0001476 276.0320 340.3269 15.49923231  4994
STARLINK-35533          
1 66429U 25259H   25338.75002315 -.01567241  00000+0 -29248-1 0  9997
2 66429  43.0006  94.0409 0001300 266.9909 351.3849 15.50942306  4993
STARLINK-35470          
1 66430U 25259J   25338.75002315  .00047106  00000+0  80523-3 0  9994
2 66430  43.0006  94.0378 0001577 259.9152   0.4249 15.50533908  4998
STARLINK-35439          
1 66431U 25259K   25338.75002315  .00065253  00000+0  11113-2 0  9996
2 66431  43.0005  94.0315 0001606 276.7874 345.4865 15.50516902  4991
STARLINK-35446          
1 66432U 25259L   25338.75002315 -.00017940  00000+0 -30072-3 0  9995
2 66432  43.0007  94.0262 0001369 276.2152 347.9385 15.50574443  4993
STARLINK-35457          
1 66433U 25259M   25338.75002315 -.00002450  00000+0 -35976-4 0  9995
2 66433  43.0007  94.0224 0001528 260.7799   5.3055 15.50559315  4994
STARLINK-35389          
1 66434U 25259N   25338.75002315 -.00025485  00000+0 -43010-3 0  9996
2 66434  43.0006  94.0186 0001463 264.0478   3.9513 15.50572291  4991
STARLINK-35502          
1 66435U 25259P   25338.75002315  .00019922  00000+0  34496-3 0  9992
2 66435  43.0007  94.0137 0001528 271.8296 358.0958 15.50544043  4996
